INMARSAT 4-F2 (SOUTHPA*)
1 28899U 05044A   26065.82490330 -.00000262  00000+0  00000+0 0  9996
2 28899   4.9606  43.8039 0002732 325.0478 236.1486  1.00271641 74499
GSAT-8 (GAGAN/PRN 127)  
1 37605U 11022A   26066.09164207  .00000082  00000+0  00000+0 0  9994
2 37605   1.8669  83.1218 0007126 216.6964 313.0303  1.00273520 52196
LUCH 5A (SDCM/PRN 140)  
1 37951U 11074B   26065.82856353 -.00000049  00000+0  00000+0 0  9999
2 37951   8.4932  75.3103 0003865 248.4778 306.1640  1.00276047 52020
SES-5 (EGNOS/PRN 136)   
1 38652U 12036A   26065.22597522  .00000028  00000+0  00000+0 0  9997
2 38652   0.0597 310.4117 0001901  31.4449 268.4077  1.00271218 43429
GSAT-10 (GAGAN/PRN 128) 
1 38779U 12051B   26066.09718876 -.00000167  00000+0  00000+0 0  9992
2 38779   0.0668 261.7902 0004573 177.7740 203.2099  1.00273368 49070
LUCH 5B (SDCM/PRN 125)  
1 38977U 12061A   26065.76608216 -.00000139  00000+0  00000+0 0  9991
2 38977  10.2623  50.8817 0003692 226.3927 146.6875  1.00272261 48583
ASTRA 5B (EGNOS/PRN 123)
1 39617U 14011B   26066.07802911  .00000134  00000+0  00000+0 0  9997
2 39617   0.0853 301.2671 0004003  28.9943 246.0885  1.00272471 43640
LUCH 5V (SDCM/PRN 141)  
1 39727U 14023A   26066.02820178 -.00000270  00000+0  00000+0 0  9994
2 39727   4.8814  70.7503 0003076 285.6629 273.2102  1.00271257 43336
GSAT-15 (GAGAN/PRN 139) 
1 41028U 15065A   26066.09926876 -.00000260  00000+0  00000+0 0  9996
2 41028   0.0830 269.5337 0001193 109.3872 275.1000  1.00272269 37775
EUTELSAT 117 WEST B (W*)
1 41589U 16038B   26066.14072602 -.00000014  00000+0  00000+0 0  9991
2 41589   0.0167 306.1248 0000444 315.0686 197.3291  1.00270832 35641
SES-15 (WAAS/PRN 133)   
1 42709U 17026A   26066.14628090  .00000057  00000+0  00000+0 0  9998
2 42709   0.0446 333.6430 0001005  26.6136  88.0888  1.00273335  6404
QZS-2 (QZSS/PRN 194)    
1 42738U 17028A   26065.89280925 -.00000162  00000+0  00000+0 0  9992
2 42738  39.5865 244.6431 0745331 270.3514 112.5324  1.00261347  6605
QZS-3 (QZSS/PRN 199)    
1 42917U 17048A   26065.97683830 -.00000351  00000+0  00000+0 0  9994
2 42917   0.0677 212.1895 0002297 148.7583 282.4115  1.00275138 31238
QZS-4 (QZSS/PRN 195)    
1 42965U 17062A   26064.74126170 -.00000341  00000+0  00000+0 0  9995
2 42965  40.1722 344.8064 0748494 269.9150 316.0784  1.00280691 30763
BEIDOU-3 G1 (PRN 130)   
1 43683U 18085A   26066.17978247 -.00000281  00000+0  00000+0 0  9991
2 43683   2.8177 100.3057 0001582  15.4114 253.8947  1.00267768 27036
EUTELSAT 5 WEST B (EGN*)
1 44624U 19067A   26065.98377960 -.00000045  00000+0  00000+0 0  9999
2 44624   0.0903 313.4142 0003221  44.3118 156.1052  1.00273182 23415
BEIDOU-3 G2 (PRN 144)   
1 45344U 20017A   26066.16773575 -.00000142  00000+0  00000+0 0  9997
2 45344   2.6598  45.6412 0002716 311.4294 308.2242  1.00272794 22236
BEIDOU-3 G3 (PRN 143)   
1 45807U 20040A   26066.04608384 -.00000356  00000+0  00000+0 0  9996
2 45807   2.1964  67.1395 0004574 319.6258 265.0903  1.00274385 21045
GALAXY 30 (WAAS/PRN 135)
1 46114U 20056C   26066.14072602  .00000000  00000+0  00000+0 0  9999
2 46114   0.0216 152.1450 0002041 204.8651  93.5172  1.00271923 20260
QZS-1R (QZSS/PRN 196)   
1 49336U 21096A   26065.82405683 -.00000265  00000+0  00000+0 0  9990
2 49336  37.2488  81.0937 0747759 269.7649 244.5984  1.00290649 15989
QZS-6 (QZSS/PRN 200)    
1 62876U 25023A   26066.09866209 -.00000235  00000+0  00000+0 0  9990
2 62876   0.0301 288.5034 0001825  56.7759 305.5247  1.00269602  3937
